FLOCK 4G-1              
1 62666U 25009BK  26068.75951132  .00013534  00000+0  50654-3 0  9995
2 62666  97.4059 151.3158 0003180 323.1401  36.9619 15.27421081 63725
STARLINK-35859          
1 67185U 25303Y   26068.06565655  .00037802  00000+0  13759-2 0  9996
2 67185  43.0016 313.8994 0001659 262.5678  97.4985 15.27586117 12645
